[
  {
    "COMMENT": "GENERATED VIA SPACETRACK.ORG API",
    "ORIGINATOR": "18 SPCS",
    "NORAD_CAT_ID": "54754",
    "OBJECT_NAME": "SWOT",
    "OBJECT_TYPE": "PAYLOAD",
    "CLASSIFICATION_TYPE": "U",
    "INTLDES": "22173A",
    "EPOCH": "2023-07-04 15:40:27",
    "EPOCH_MICROSECONDS": "238656",
    "MEAN_MOTION": "14.09850947",
    "ECCENTRICITY": "0.0000567",
    "INCLINATION": "77.6099",
    "RA_OF_ASC_NODE": "51.3848",
    "ARG_OF_PERICENTER": "177.3743",
    "MEAN_ANOMALY": "182.7417",
    "EPHEMERIS_TYPE": "0",
    "ELEMENT_SET_NO": "999",
    "REV_AT_EPOCH": "2820",
    "BSTAR": "0.00013771",
    "MEAN_MOTION_DOT": "0.00000239",
    "MEAN_MOTION_DDOT": "0",
    "FILE": "3949645",
    "TLE_LINE0": "0 SWOT",
    "TLE_LINE1": "1 54754U 22173A   23185.65309304  .00000239  00000-0  13771-3 0  9995",
    "TLE_LINE2": "2 54754  77.6099  51.3848 0000567 177.3743 182.7417 14.09850947 28203",
    "OBJECT_ID": "2022-173A",
    "OBJECT_NUMBER": "54754",
    "SEMIMAJOR_AXIS": "7238.019",
    "PERIOD": "102.138",
    "APOGEE": "860.294",
    "PERIGEE": "859.473",
    "DECAYED": "0"
  },
  {
    "COMMENT": "GENERATED VIA SPACETRACK.ORG API",
    "ORIGINATOR": "18 SPCS",
    "NORAD_CAT_ID": "54754",
    "OBJECT_NAME": "SWOT",
    "OBJECT_TYPE": "PAYLOAD",
    "CLASSIFICATION_TYPE": "U",
    "INTLDES": "22173A",
    "EPOCH": "2023-07-05 17:13:16",
    "EPOCH_MICROSECONDS": "477248",
    "MEAN_MOTION": "14.09851467",
    "ECCENTRICITY": "0.0000551",
    "INCLINATION": "77.6099",
    "RA_OF_ASC_NODE": "49.9245",
    "ARG_OF_PERICENTER": "177.9632",
    "MEAN_ANOMALY": "182.1527",
    "EPHEMERIS_TYPE": "0",
    "ELEMENT_SET_NO": "999",
    "REV_AT_EPOCH": "2835",
    "BSTAR": "0.00013831",
    "MEAN_MOTION_DOT": "0.00000241",
    "MEAN_MOTION_DDOT": "0",
    "FILE": "3950455",
    "TLE_LINE0": "0 SWOT",
    "TLE_LINE1": "1 54754U 22173A   23186.71755182  .00000241  00000-0  13831-3 0  9992",
    "TLE_LINE2": "2 54754  77.6099  49.9245 0000551 177.9632 182.1527 14.09851467 28353",
    "OBJECT_ID": "2022-173A",
    "OBJECT_NUMBER": "54754",
    "SEMIMAJOR_AXIS": "7238.017",
    "PERIOD": "102.138",
    "APOGEE": "860.281",
    "PERIGEE": "859.483",
    "DECAYED": "0"
  },
  {
    "COMMENT": "GENERATED VIA SPACETRACK.ORG API",
    "ORIGINATOR": "18 SPCS",
    "NORAD_CAT_ID": "54754",
    "OBJECT_NAME": "SWOT",
    "OBJECT_TYPE": "PAYLOAD",
    "CLASSIFICATION_TYPE": "U",
    "INTLDES": "22173A",
    "EPOCH": "2023-07-06 18:46:05",
    "EPOCH_MICROSECONDS": "686464",
    "MEAN_MOTION": "14.09851942",
    "ECCENTRICITY": "0.0000536",
    "INCLINATION": "77.6099",
    "RA_OF_ASC_NODE": "48.4642",
    "ARG_OF_PERICENTER": "178.347",
    "MEAN_ANOMALY": "181.7689",
    "EPHEMERIS_TYPE": "0",
    "ELEMENT_SET_NO": "999",
    "REV_AT_EPOCH": "2850",
    "BSTAR": "0.00013267",
    "MEAN_MOTION_DOT": "0.00000231",
    "MEAN_MOTION_DDOT": "0",
    "FILE": "3951388",
    "TLE_LINE0": "0 SWOT",
    "TLE_LINE1": "1 54754U 22173A   23187.78201026  .00000231  00000-0  13267-3 0  9995",
    "TLE_LINE2": "2 54754  77.6099  48.4642 0000536 178.3470 181.7689 14.09851942 28505",
    "OBJECT_ID": "2022-173A",
    "OBJECT_NUMBER": "54754",
    "SEMIMAJOR_AXIS": "7238.015",
    "PERIOD": "102.138",
    "APOGEE": "860.268",
    "PERIGEE": "859.492",
    "DECAYED": "0"
  },
  {
    "COMMENT": "GENERATED VIA SPACETRACK.ORG API",
    "ORIGINATOR": "18 SPCS",
    "NORAD_CAT_ID": "54754",
    "OBJECT_NAME": "SWOT",
    "OBJECT_TYPE": "PAYLOAD",
    "CLASSIFICATION_TYPE": "U",
    "INTLDES": "22173A",
    "EPOCH": "2023-07-07 20:18:54",
    "EPOCH_MICROSECONDS": "861120",
    "MEAN_MOTION": "14.09852439",
    "ECCENTRICITY": "0.0000518",
    "INCLINATION": "77.6099",
    "RA_OF_ASC_NODE": "47.0039",
    "ARG_OF_PERICENTER": "179.0777",
    "MEAN_ANOMALY": "181.0381",
    "EPHEMERIS_TYPE": "0",
    "ELEMENT_SET_NO": "999",
    "REV_AT_EPOCH": "2865",
    "BSTAR": "0.00013079",
    "MEAN_MOTION_DOT": "0.00000227",
    "MEAN_MOTION_DDOT": "0",
    "FILE": "3952261",
    "TLE_LINE0": "0 SWOT",
    "TLE_LINE1": "1 54754U 22173A   23188.84646830  .00000227  00000-0  13079-3 0  9995",
    "TLE_LINE2": "2 54754  77.6099  47.0039 0000518 179.0777 181.0381 14.09852439 28658",
    "OBJECT_ID": "2022-173A",
    "OBJECT_NUMBER": "54754",
    "SEMIMAJOR_AXIS": "7238.014",
    "PERIOD": "102.138",
    "APOGEE": "860.254",
    "PERIGEE": "859.504",
    "DECAYED": "0"
  },
  {
    "COMMENT": "GENERATED VIA SPACETRACK.ORG API",
    "ORIGINATOR": "18 SPCS",
    "NORAD_CAT_ID": "54754",
    "OBJECT_NAME": "SWOT",
    "OBJECT_TYPE": "PAYLOAD",
    "CLASSIFICATION_TYPE": "U",
    "INTLDES": "22173A",
    "EPOCH": "2023-07-09 04:40:29",
    "EPOCH_MICROSECONDS": "106912",
    "MEAN_MOTION": "14.09853031",
    "ECCENTRICITY": "0.0000501",
    "INCLINATION": "77.6099",
    "RA_OF_ASC_NODE": "45.1541",
    "ARG_OF_PERICENTER": "179.7382",
    "MEAN_ANOMALY": "180.3776",
    "EPHEMERIS_TYPE": "0",
    "ELEMENT_SET_NO": "999",
    "REV_AT_EPOCH": "2884",
    "BSTAR": "0.00012535",
    "MEAN_MOTION_DOT": "0.00000218",
    "MEAN_MOTION_DDOT": "0",
    "FILE": "3953439",
    "TLE_LINE0": "0 SWOT",
    "TLE_LINE1": "1 54754U 22173A   23190.19478133  .00000218  00000-0  12535-3 0  9991",
    "TLE_LINE2": "2 54754  77.6099  45.1541 0000501 179.7382 180.3776 14.09853031 28846",
    "OBJECT_ID": "2022-173A",
    "OBJECT_NUMBER": "54754",
    "SEMIMAJOR_AXIS": "7238.012",
    "PERIOD": "102.138",
    "APOGEE": "860.239",
    "PERIGEE": "859.514",
    "DECAYED": "0"
  },
  {
    "COMMENT": "GENERATED VIA SPACETRACK.ORG API",
    "ORIGINATOR": "18 SPCS",
    "NORAD_CAT_ID": "54754",
    "OBJECT_NAME": "SWOT",
    "OBJECT_TYPE": "PAYLOAD",
    "CLASSIFICATION_TYPE": "U",
    "INTLDES": "22173A",
    "EPOCH": "2023-07-10 13:02:03",
    "EPOCH_MICROSECONDS": "305184",
    "MEAN_MOTION": "14.09853594",
    "ECCENTRICITY": "0.0000496",
    "INCLINATION": "77.6099",
    "RA_OF_ASC_NODE": "43.3043",
    "ARG_OF_PERICENTER": "180.5952",
    "MEAN_ANOMALY": "179.5205",
    "EPHEMERIS_TYPE": "0",
    "ELEMENT_SET_NO": "999",
    "REV_AT_EPOCH": "2903",
    "BSTAR": "0.00012273",
    "MEAN_MOTION_DOT": "0.00000213",
    "MEAN_MOTION_DDOT": "0",
    "FILE": "3954544",
    "TLE_LINE0": "0 SWOT",
    "TLE_LINE1": "1 54754U 22173A   23191.54309381  .00000213  00000-0  12273-3 0  9993",
    "TLE_LINE2": "2 54754  77.6099  43.3043 0000496 180.5952 179.5205 14.09853594 29032",
    "OBJECT_ID": "2022-173A",
    "OBJECT_NUMBER": "54754",
    "SEMIMAJOR_AXIS": "7238.010",
    "PERIOD": "102.138",
    "APOGEE": "860.234",
    "PERIGEE": "859.516",
    "DECAYED": "0"
  },
  {
    "COMMENT": "GENERATED VIA SPACETRACK.ORG API",
    "ORIGINATOR": "18 SPCS",
    "NORAD_CAT_ID": "54754",
    "OBJECT_NAME": "SWOT",
    "OBJECT_TYPE": "PAYLOAD",
    "CLASSIFICATION_TYPE": "U",
    "INTLDES": "22173A",
    "EPOCH": "2023-07-11 04:21:57",
    "EPOCH_MICROSECONDS": "40416",
    "MEAN_MOTION": "14.07034947",
    "ECCENTRICITY": "0.0013079",
    "INCLINATION": "77.6099",
    "RA_OF_ASC_NODE": "42.4278",
    "ARG_OF_PERICENTER": "72.6676",
    "MEAN_ANOMALY": "287.5909",
    "EPHEMERIS_TYPE": "0",
    "ELEMENT_SET_NO": "999",
    "REV_AT_EPOCH": "2912",
    "BSTAR": "0.00012942",
    "MEAN_MOTION_DOT": "0.00000214",
    "MEAN_MOTION_DDOT": "0",
    "FILE": "3955554",
    "TLE_LINE0": "0 SWOT",
    "TLE_LINE1": "1 54754U 22173A   23192.18191019  .00000214  00000-0  12942-3 0  9995",
    "TLE_LINE2": "2 54754  77.6099  42.4278 0013079  72.6676 287.5909 14.07034947 29129",
    "OBJECT_ID": "2022-173A",
    "OBJECT_NUMBER": "54754",
    "SEMIMAJOR_AXIS": "7247.673",
    "PERIOD": "102.343",
    "APOGEE": "879.017",
    "PERIGEE": "860.059",
    "DECAYED": "0"
  },
  {
    "COMMENT": "GENERATED VIA SPACETRACK.ORG API",
    "ORIGINATOR": "18 SPCS",
    "NORAD_CAT_ID": "54754",
    "OBJECT_NAME": "SWOT",
    "OBJECT_TYPE": "PAYLOAD",
    "CLASSIFICATION_TYPE": "U",
    "INTLDES": "22173A",
    "EPOCH": "2023-07-14 11:06:00",
    "EPOCH_MICROSECONDS": "914112",
    "MEAN_MOTION": "14.0063036",
    "ECCENTRICITY": "0.000054",
    "INCLINATION": "77.6099",
    "RA_OF_ASC_NODE": "37.9791",
    "ARG_OF_PERICENTER": "164.0281",
    "MEAN_ANOMALY": "196.0888",
    "EPHEMERIS_TYPE": "0",
    "ELEMENT_SET_NO": "999",
    "REV_AT_EPOCH": "2958",
    "BSTAR": "0.00010058",
    "MEAN_MOTION_DOT": "0.00000147",
    "MEAN_MOTION_DDOT": "0",
    "FILE": "3957613",
    "TLE_LINE0": "0 SWOT",
    "TLE_LINE1": "1 54754U 22173A   23195.46251058  .00000147  00000-0  10058-3 0  9990",
    "TLE_LINE2": "2 54754  77.6099  37.9791 0000540 164.0281 196.0888 14.00630360 29589",
    "OBJECT_ID": "2022-173A",
    "OBJECT_NUMBER": "54754",
    "SEMIMAJOR_AXIS": "7269.750",
    "PERIOD": "102.811",
    "APOGEE": "892.008",
    "PERIGEE": "891.223",
    "DECAYED": "0"
  },
  {
    "COMMENT": "GENERATED VIA SPACETRACK.ORG API",
    "ORIGINATOR": "18 SPCS",
    "NORAD_CAT_ID": "54754",
    "OBJECT_NAME": "SWOT",
    "OBJECT_TYPE": "PAYLOAD",
    "CLASSIFICATION_TYPE": "U",
    "INTLDES": "22173A",
    "EPOCH": "2023-07-15 11:06:03",
    "EPOCH_MICROSECONDS": "619296",
    "MEAN_MOTION": "14.00630439",
    "ECCENTRICITY": "0.0000463",
    "INCLINATION": "77.61",
    "RA_OF_ASC_NODE": "36.6282",
    "ARG_OF_PERICENTER": "156.7414",
    "MEAN_ANOMALY": "203.3759",
    "EPHEMERIS_TYPE": "0",
    "ELEMENT_SET_NO": "999",
    "REV_AT_EPOCH": "2972",
    "BSTAR": "0.000078929",
    "MEAN_MOTION_DOT": "0.00000115",
    "MEAN_MOTION_DDOT": "0",
    "FILE": "3958538",
    "TLE_LINE0": "0 SWOT",
    "TLE_LINE1": "1 54754U 22173A   23196.46254189  .00000115  00000-0  78929-4 0  9996",
    "TLE_LINE2": "2 54754  77.6100  36.6282 0000463 156.7414 203.3759 14.00630439 29725",
    "OBJECT_ID": "2022-173A",
    "OBJECT_NUMBER": "54754",
    "SEMIMAJOR_AXIS": "7269.750",
    "PERIOD": "102.811",
    "APOGEE": "891.951",
    "PERIGEE": "891.278",
    "DECAYED": "0"
  }
]